{
  "type": "FeatureCollection",
  "features": [
    {
      "type": "Feature",
      "properties": {
        "norad_id": 38857,
        "name": "GSAT0103 (GALILEO-FM3)",
        "group": "gnss",
        "lat": 44.333700821740486,
        "lon": 148.47721587463306,
        "alt_km": 23223.53182816208,
        "timestamp": "2025-12-11T20:41:15.323900+00:00",
        "meta_object_name": "GSAT0103 (GALILEO-FM3)",
        "meta_object_id": "2012-055A",
        "meta_epoch": "2025-12-10T14:16:18.944544",
        "meta_mean_motion": 1.70473311,
        "meta_eccentricity": 0.00025926,
        "meta_inclination": 55.6913,
        "meta_ra_of_asc_node": 106.7254,
        "meta_arg_of_pericenter": 268.6178,
        "meta_mean_anomaly": 91.322,
        "meta_ephemeris_type": 0,
        "meta_classification_type": "U",
        "meta_norad_cat_id": 38857,
        "meta_element_set_no": 999,
        "meta_rev_at_epoch": 8179,
        "meta_bstar": 0,
        "meta_mean_motion_dot": 1.1e-07,
        "meta_mean_motion_ddot": 0,
        "tle_line1": "1 38857U 12055A   25344.59466371  .00000011  00000+0  00000+0 0  9993",
        "tle_line2": "2 38857  55.6913 106.7254 0002592 268.6178  91.3220  1.70473311 81792"
      },
      "geometry": {
        "type": "Point",
        "coordinates": [
          148.47721587463306,
          44.333700821740486
        ]
      }
    },
    {
      "type": "Feature",
      "properties": {
        "norad_id": 38953,
        "name": "BEIDOU-2 G6 (C02)",
        "group": "gnss",
        "lat": 2.5352342745997163,
        "lon": 115.15916383653301,
        "alt_km": 35797.529628975775,
        "timestamp": "2025-12-11T20:41:15.323914+00:00",
        "meta_object_name": "BEIDOU-2 G6 (C02)",
        "meta_object_id": "2012-059A",
        "meta_epoch": "2025-12-11T15:37:25.426272",
        "meta_mean_motion": 1.00269683,
        "meta_eccentricity": 0.00077066,
        "meta_inclination": 3.9468,
        "meta_ra_of_asc_node": 75.513,
        "meta_arg_of_pericenter": 289.3651,
        "meta_mean_anomaly": 34.1026,
        "meta_ephemeris_type": 0,
        "meta_classification_type": "U",
        "meta_norad_cat_id": 38953,
        "meta_element_set_no": 999,
        "meta_rev_at_epoch": 4802,
        "meta_bstar": 0,
        "meta_mean_motion_dot": -1.68e-06,
        "meta_mean_motion_ddot": 0,
        "tle_line1": "1 38953U 12059A   25345.65098873 -.00000168  00000+0  00000+0 0  9994",
        "tle_line2": "2 38953   3.9468  75.5130 0007706 289.3651  34.1026  1.00269683 48020"
      },
      "geometry": {
        "type": "Point",
        "coordinates": [
          115.15916383653301,
          2.5352342745997163
        ]
      }
    },
    {
      "type": "Feature",
      "properties": {
        "norad_id": 38977,
        "name": "LUCH 5B (SDCM/PRN 125)",
        "group": "gnss",
        "lat": -6.0230277074611935,
        "lon": 15.280935903067212,
        "alt_km": 35806.79231570162,
        "timestamp": "2025-12-11T20:41:15.323926+00:00",
        "meta_object_name": "LUCH 5B (SDCM/PRN 125)",
        "meta_object_id": "2012-061A",
        "meta_epoch": "2025-12-11T10:00:41.042880",
        "meta_mean_motion": 1.00272299,
        "meta_eccentricity": 0.00072881,
        "meta_inclination": 10.0788,
        "meta_ra_of_asc_node": 51.7197,
        "meta_arg_of_pericenter": 192.479,
        "meta_mean_anomaly": 330.0093,
        "meta_ephemeris_type": 0,
        "meta_classification_type": "U",
        "meta_norad_cat_id": 38977,
        "meta_element_set_no": 999,
        "meta_rev_at_epoch": 4772,
        "meta_bstar": 0,
        "meta_mean_motion_dot": -1.34e-06,
        "meta_mean_motion_ddot": 0,
        "tle_line1": "1 38977U 12061A   25345.41714170 -.00000134  00000+0  00000+0 0  9995",
        "tle_line2": "2 38977  10.0788  51.7197 0007288 192.4790 330.0093  1.00272299 47727"
      },
      "geometry": {
        "type": "Point",
        "coordinates": [
          15.280935903067212,
          -6.0230277074611935
        ]
      }
    },
    {
      "type": "Feature",
      "properties": {
        "norad_id": 39155,
        "name": "COSMOS 2485 (747)",
        "group": "gnss",
        "lat": 33.63414450736844,
        "lon": -117.89027289888618,
        "alt_km": 19122.231458705184,
        "timestamp": "2025-12-11T20:41:15.323940+00:00",
        "meta_object_name": "COSMOS 2485 (747)",
        "meta_object_id": "2013-019A",
        "meta_epoch": "2025-12-10T17:41:35.437344",
        "meta_mean_motion": 2.13102878,
        "meta_eccentricity": 0.00245732,
        "meta_inclination": 65.3124,
        "meta_ra_of_asc_node": 79.9346,
        "meta_arg_of_pericenter": 229.2052,
        "meta_mean_anomaly": 130.5984,
        "meta_ephemeris_type": 0,
        "meta_classification_type": "U",
        "meta_norad_cat_id": 39155,
        "meta_element_set_no": 999,
        "meta_rev_at_epoch": 9826,
        "meta_bstar": 0,
        "meta_mean_motion_dot": -2.2e-07,
        "meta_mean_motion_ddot": 0,
        "tle_line1": "1 39155U 13019A   25344.73721571 -.00000022  00000+0  00000+0 0  9991",
        "tle_line2": "2 39155  65.3124  79.9346 0024573 229.2052 130.5984  2.13102878 98264"
      },
      "geometry": {
        "type": "Point",
        "coordinates": [
          -117.89027289888618,
          33.63414450736844
        ]
      }
    },
    {
      "type": "Feature",
      "properties": {
        "norad_id": 39166,
        "name": "GPS BIIF-4  (PRN 27)",
        "group": "gnss",
        "lat": 51.46740886363754,
        "lon": 33.70387046485303,
        "alt_km": 19978.135972737273,
        "timestamp": "2025-12-11T20:41:15.323951+00:00",
        "meta_object_name": "GPS BIIF-4  (PRN 27)",
        "meta_object_id": "2013-023A",
        "meta_epoch": "2025-12-11T05:15:59.310144",
        "meta_mean_motion": 2.0056514,
        "meta_eccentricity": 0.01377988,
        "meta_inclination": 54.6533,
        "meta_ra_of_asc_node": 276.63,
        "meta_arg_of_pericenter": 48.5969,
        "meta_mean_anomaly": 312.5932,
        "meta_ephemeris_type": 0,
        "meta_classification_type": "U",
        "meta_norad_cat_id": 39166,
        "meta_element_set_no": 999,
        "meta_rev_at_epoch": 9211,
        "meta_bstar": 0,
        "meta_mean_motion_dot": -6.7e-07,
        "meta_mean_motion_ddot": 0,
        "tle_line1": "1 39166U 13023A   25345.21943646 -.00000067  00000+0  00000+0 0  9990",
        "tle_line2": "2 39166  54.6533 276.6300 0137798  48.5969 312.5932  2.00565140 92114"
      },
      "geometry": {
        "type": "Point",
        "coordinates": [
          33.70387046485303,
          51.46740886363754
        ]
      }
    },
    {
      "type": "Feature",
      "properties": {
        "norad_id": 39199,
        "name": "IRNSS-1A",
        "group": "gnss",
        "lat": 11.350143936877995,
        "lon": 83.01741015791744,
        "alt_km": 35870.89876125069,
        "timestamp": "2025-12-11T20:41:15.323965+00:00",
        "meta_object_name": "IRNSS-1A",
        "meta_object_id": "2013-034A",
        "meta_epoch": "2025-12-02T19:49:26.431104",
        "meta_mean_motion": 1.00279053,
        "meta_eccentricity": 0.00216608,
        "meta_inclination": 35.2852,
        "meta_ra_of_asc_node": 66.6964,
        "meta_arg_of_pericenter": 185.4059,
        "meta_mean_anomaly": 172.3398,
        "meta_ephemeris_type": 0,
        "meta_classification_type": "U",
        "meta_norad_cat_id": 39199,
        "meta_element_set_no": 999,
        "meta_rev_at_epoch": 4539,
        "meta_bstar": 0,
        "meta_mean_motion_dot": 6.5e-07,
        "meta_mean_motion_ddot": 0,
        "tle_line1": "1 39199U 13034A   25336.82600036  .00000065  00000+0  00000+0 0  9995",
        "tle_line2": "2 39199  35.2852  66.6964 0021660 185.4059 172.3398  1.00279053 45393"
      },
      "geometry": {
        "type": "Point",
        "coordinates": [
          83.01741015791744,
          11.350143936877995
        ]
      }
    },
    {
      "type": "Feature",
      "properties": {
        "norad_id": 39533,
        "name": "GPS BIIF-5  (PRN 30)",
        "group": "gnss",
        "lat": 50.394230730265065,
        "lon": -86.01739835386839,
        "alt_km": 20278.10961539386,
        "timestamp": "2025-12-11T20:41:15.323977+00:00",
        "meta_object_name": "GPS BIIF-5  (PRN 30)",
        "meta_object_id": "2014-008A",
        "meta_epoch": "2025-12-10T17:09:32.568192",
        "meta_mean_motion": 2.00574305,
        "meta_eccentricity": 0.0079159,
        "meta_inclination": 53.631,
        "meta_ra_of_asc_node": 157.0072,
        "meta_arg_of_pericenter": 226.4701,
        "meta_mean_anomaly": 132.8778,
        "meta_ephemeris_type": 0,
        "meta_classification_type": "U",
        "meta_norad_cat_id": 39533,
        "meta_element_set_no": 999,
        "meta_rev_at_epoch": 8590,
        "meta_bstar": 0,
        "meta_mean_motion_dot": 7.7e-07,
        "meta_mean_motion_ddot": 0,
        "tle_line1": "1 39533U 14008A   25344.71496028  .00000077  00000+0  00000+0 0  9993",
        "tle_line2": "2 39533  53.6310 157.0072 0079159 226.4701 132.8778  2.00574305 85902"
      },
      "geometry": {
        "type": "Point",
        "coordinates": [
          -86.01739835386839,
          50.394230730265065
        ]
      }
    }
  ]
}